{"type": "FeatureCollection", "features": [ {"type": "Feature", "properties": {"norad_id": 66643, "name": "STARLINK-35918", "group": "last-30-days", "lat": -18.225694316829355, "lon": -161.15321166928928, "alt_km": 353.1867818690953, "timestamp": "2025-12-07T09:35:08.571754+00:00", "meta": {"OBJECT_NAME": "STARLINK-35918", "OBJECT_ID": "2025-271AC", "EPOCH": "2025-12-06T22:00:01.999584", "MEAN_MOTION": 15.74597337, "ECCENTRICITY": 0.00012356, "INCLINATION": 53.1576, "RA_OF_ASC_NODE": 215.5356, "ARG_OF_PERICENTER": 79.0845, "MEAN_ANOMALY": 41.4228, "EPHEMERIS_TYPE": 0, "CLASSIFICATION_TYPE": "U", "NORAD_CAT_ID": 66643, "ELEMENT_SET_NO": 999, "REV_AT_EPOCH": 330, "BSTAR": -0.010557394, "MEAN_MOTION_DOT": -0.01397232, "MEAN_MOTION_DDOT": 0}, "tle": {"line1": "1 66643U 25271AC  25340.91668981 -.01397232  00000+0 -10557-1 0  9991", "line2": "2 66643  53.1576 215.5356 0001235  79.0845  41.4228 15.74597337  3303"}}, "geometry": {"type": "Point", "coordinates": [-161.15321166928928, -18.225694316829355]}}, {"type": "Feature", "properties": {"norad_id": 66644, "name": "STARLINK-35938", "group": "last-30-days", "lat": -16.732445060036365, "lon": -159.8912190250448, "alt_km": 352.8940253155524, "timestamp": "2025-12-07T09:35:08.571770+00:00", "meta": {"OBJECT_NAME": "STARLINK-35938", "OBJECT_ID": "2025-271AD", "EPOCH": "2025-12-06T22:00:01.999584", "MEAN_MOTION": 15.74602024, "ECCENTRICITY": 6.99e-05, "INCLINATION": 53.1572, "RA_OF_ASC_NODE": 215.5312, "ARG_OF_PERICENTER": 82.7774, "MEAN_ANOMALY": 39.6482, "EPHEMERIS_TYPE": 0, "CLASSIFICATION_TYPE": "U", "NORAD_CAT_ID": 66644, "ELEMENT_SET_NO": 999, "REV_AT_EPOCH": 330, "BSTAR": -0.010642933, "MEAN_MOTION_DOT": -0.01407227, "MEAN_MOTION_DDOT": 0}, "tle": {"line1": "1 66644U 25271AD  25340.91668981 -.01407227  00000+0 -10643-1 0  9994", "line2": "2 66644  53.1572 215.5312 0000699  82.7774  39.6482 15.74602024  3308"}}, "geometry": {"type": "Point", "coordinates": [-159.8912190250448, -16.732445060036365]}}, {"type": "Feature", "properties": {"norad_id": 66645, "name": "SHENZHOU-22", "group": "last-30-days", "lat": 6.455474416665785, "lon": 56.480980263164625, "alt_km": 383.7864551722878, "timestamp": "2025-12-07T09:35:08.571782+00:00", "meta": {"OBJECT_NAME": "SHENZHOU-22", "OBJECT_ID": "2025-272A", "EPOCH": "2025-12-06T21:14:35.052288", "MEAN_MOTION": 15.58811356, "ECCENTRICITY": 0.00094534, "INCLINATION": 41.4683, "RA_OF_ASC_NODE": 52.2413, "ARG_OF_PERICENTER": 344.5349, "MEAN_ANOMALY": 15.5199, "EPHEMERIS_TYPE": 0, "CLASSIFICATION_TYPE": "U", "NORAD_CAT_ID": 66645, "ELEMENT_SET_NO": 999, "REV_AT_EPOCH": 26300, "BSTAR": 0.00035334049, "MEAN_MOTION_DOT": 0.00027906, "MEAN_MOTION_DDOT": 0}, "tle": {"line1": "1 66645U 25272A   25340.88512792  .00027906  00000+0  35334-3 0  9995", "line2": "2 66645  41.4683  52.2413 0009453 344.5349  15.5199 15.58811356263009"}}, "geometry": {"type": "Point", "coordinates": [56.480980263164625, 6.455474416665785]}}, {"type": "Feature", "properties": {"norad_id": 66646, "name": "CZ-2F R/B", "group": "last-30-days", "lat": -31.770680106408474, "lon": -92.46674931212578, "alt_km": 151.0399054214231, "timestamp": "2025-12-07T09:35:08.571793+00:00", "meta": {"OBJECT_NAME": "CZ-2F R/B", "OBJECT_ID": "2025-272B", "EPOCH": "2025-12-06T20:55:41.021184", "MEAN_MOTION": 16.34691308, "ECCENTRICITY": 0.0038093, "INCLINATION": 41.4537, "RA_OF_ASC_NODE": 46.5611, "ARG_OF_PERICENTER": 222.6714, "MEAN_ANOMALY": 137.119, "EPHEMERIS_TYPE": 0, "CLASSIFICATION_TYPE": "U", "NORAD_CAT_ID": 66646, "ELEMENT_SET_NO": 999, "REV_AT_EPOCH": 189, "BSTAR": 0.00045837, "MEAN_MOTION_DOT": 0.04803871, "MEAN_MOTION_DDOT": 7.8554e-06}, "tle": {"line1": "1 66646U 25272B   25340.87200256  .04803871  78554-5  45837-3 0  9995", "line2": "2 66646  41.4537  46.5611 0038093 222.6714 137.1190 16.34691308  1895"}}, "geometry": {"type": "Point", "coordinates": [-92.46674931212578, -31.770680106408474]}}, {"type": "Feature", "properties": {"norad_id": 66647, "name": "COSMOS 2597 (RODNIK-S 22)", "group": "last-30-days", "lat": 3.730853384257114, "lon": -69.74211334634546, "alt_km": 1497.565427383889, "timestamp": "2025-12-07T09:35:08.571803+00:00", "meta": {"OBJECT_NAME": "COSMOS 2597 (RODNIK-S 22)", "OBJECT_ID": "2025-273A", "EPOCH": "2025-12-06T21:57:54.802368", "MEAN_MOTION": 12.41951178, "ECCENTRICITY": 0.00080235, "INCLINATION": 82.4981, "RA_OF_ASC_NODE": 290.0662, "ARG_OF_PERICENTER": 302.9826, "MEAN_ANOMALY": 57.0481, "EPHEMERIS_TYPE": 0, "CLASSIFICATION_TYPE": "U", "NORAD_CAT_ID": 66647, "ELEMENT_SET_NO": 999, "REV_AT_EPOCH": 141, "BSTAR": 0.00012372964, "MEAN_MOTION_DOT": 2.7e-07, "MEAN_MOTION_DDOT": 0}, "tle": {"line1": "1 66647U 25273A   25340.91521762  .00000027  00000+0  12373-3 0  9992", "line2": "2 66647  82.4981 290.0662 0008023 302.9826  57.0481 12.41951178  1411"}}, "geometry": {"type": "Point", "coordinates": [-69.74211334634546, 3.730853384257114]}}, {"type": "Feature", "properties": {"norad_id": 66648, "name": "COSMOS 2598 (RODNIK-S 23)", "group": "last-30-days", "lat": 19.362800875303037, "lon": -67.57696603205481, "alt_km": 1496.8434463773156, "timestamp": "2025-12-07T09:35:08.571813+00:00", "meta": {"OBJECT_NAME": "COSMOS 2598 (RODNIK-S 23)", "OBJECT_ID": "2025-273B", "EPOCH": "2025-12-06T21:53:20.641344", "MEAN_MOTION": 12.42862084, "ECCENTRICITY": 0.00072477, "INCLINATION": 82.5028, "RA_OF_ASC_NODE": 290.0737, "ARG_OF_PERICENTER": 265.3772, "MEAN_ANOMALY": 94.648, "EPHEMERIS_TYPE": 0, "CLASSIFICATION_TYPE": "U", "NORAD_CAT_ID": 66648, "ELEMENT_SET_NO": 999, "REV_AT_EPOCH": 141, "BSTAR": -7.266063e-06, "MEAN_MOTION_DOT": 9e-08, "MEAN_MOTION_DDOT": 0}, "tle": {"line1": "1 66648U 25273B   25340.91204446  .00000009  00000+0 -72661-5 0  9999", "line2": "2 66648  82.5028 290.0737 0007247 265.3772  94.6480 12.42862084  1411"}}, "geometry": {"type": "Point", "coordinates": [-67.57696603205481, 19.362800875303037]}}, {"type": "Feature", "properties": {"norad_id": 66649, "name": "COSMOS 2599 (RODNIK-S 24)", "group": "last-30-days", "lat": -7.990617452026254, "lon": -71.27997308328592, "alt_km": 1498.2056459207115, "timestamp": "2025-12-07T09:35:08.571824+00:00", "meta": {"OBJECT_NAME": "COSMOS 2599 (RODNIK-S 24)", "OBJECT_ID": "2025-273C", "EPOCH": "2025-12-06T22:01:33.772800", "MEAN_MOTION": 12.41671814, "ECCENTRICITY": 0.00082435, "INCLINATION": 82.5021, "RA_OF_ASC_NODE": 290.0779, "ARG_OF_PERICENTER": 313.4418, "MEAN_ANOMALY": 46.5975, "EPHEMERIS_TYPE": 0, "CLASSIFICATION_TYPE": "U", "NORAD_CAT_ID": 66649, "ELEMENT_SET_NO": 999, "REV_AT_EPOCH": 141, "BSTAR": 4.6176361e-05, "MEAN_MOTION_DOT": 1.6e-07, "MEAN_MOTION_DDOT": 0}, "tle": {"line1": "1 66649U 25273C   25340.91775200  .00000016  00000+0  46176-4 0  9999", "line2": "2 66649  82.5021 290.0779 0008243 313.4418  46.5975 12.41671814  1413"}}, "geometry": {"type": "Point", "coordinates": [-71.27997308328592, -7.990617452026254]}}, {"type": "Feature", "properties": {"norad_id": 66650, "name": "BEE-1000", "group": "last-30-days", "lat": 70.8115361946995, "lon": -114.3151594241391, "alt_km": 592.8570764175993, "timestamp": "2025-12-07T09:35:08.571837+00:00", "meta": {"OBJECT_NAME": "BEE-1000", "OBJECT_ID": "2025-274A", "EPOCH": "2025-12-06T18:46:20.231904", "MEAN_MOTION": 14.91630145, "ECCENTRICITY": 0.00104591, "INCLINATION": 97.7385, "RA_OF_ASC_NODE": 268.0797, "ARG_OF_PERICENTER": 274.4491, "MEAN_ANOMALY": 85.5533, "EPHEMERIS_TYPE": 0, "CLASSIFICATION_TYPE": "U", "NORAD_CAT_ID": 66650, "ELEMENT_SET_NO": 999, "REV_AT_EPOCH": 151, "BSTAR": 0.00028243765, "MEAN_MOTION_DOT": 2.783e-05, "MEAN_MOTION_DDOT": 0}, "tle": {"line1": "1 66650U 25274A   25340.78217861  .00002783  00000+0  28244-3 0  9999", "line2": "2 66650  97.7385 268.0797 0010459 274.4491  85.5533 14.91630145  1513"}}, "geometry": {"type": "Point", "coordinates": [-114.3151594241391, 70.8115361946995]}}, {"type": "Feature", "properties": {"norad_id": 66651, "name": "2025-274B", "group": "last-30-days", "lat": 73.22998260810229, "lon": -118.13892362122878, "alt_km": 592.664468425447, "timestamp": "2025-12-07T09:35:08.571847+00:00", "meta": {"OBJECT_NAME": "2025-274B", "OBJECT_ID": "2025-274B", "EPOCH": "2025-12-06T18:45:40.493088", "MEAN_MOTION": 14.91729352, "ECCENTRICITY": 0.00107337, "INCLINATION": 97.7387, "RA_OF_ASC_NODE": 268.0793, "ARG_OF_PERICENTER": 274.0967, "MEAN_ANOMALY": 85.9024, "EPHEMERIS_TYPE": 0, "CLASSIFICATION_TYPE": "U", "NORAD_CAT_ID": 66651, "ELEMENT_SET_NO": 999, "REV_AT_EPOCH": 151, "BSTAR": 0.00062427055, "MEAN_MOTION_DOT": 6.238e-05, "MEAN_MOTION_DDOT": 0}, "tle": {"line1": "1 66651U 25274B   25340.78171867  .00006238  00000+0  62427-3 0  9995", "line2": "2 66651  97.7387 268.0793 0010733 274.0967  85.9024 14.91729352  1519"}}, "geometry": {"type": "Point", "coordinates": [-118.13892362122878, 73.22998260810229]}}, {"type": "Feature", "properties": {"norad_id": 66652, "name": "2025-274C", "group": "last-30-days", "lat": 77.87180841636834, "lon": -130.57053013801917, "alt_km": 591.7437754736029, "timestamp": "2025-12-07T09:35:08.571858+00:00", "meta": {"OBJECT_NAME": "2025-274C", "OBJECT_ID": "2025-274C", "EPOCH": "2025-12-06T18:44:15.825408", "MEAN_MOTION": 14.91857241, "ECCENTRICITY": 0.00104263, "INCLINATION": 97.7391, "RA_OF_ASC_NODE": 268.0813, "ARG_OF_PERICENTER": 280.9539, "MEAN_ANOMALY": 79.0506, "EPHEMERIS_TYPE": 0, "CLASSIFICATION_TYPE": "U", "NORAD_CAT_ID": 66652, "ELEMENT_SET_NO": 999, "REV_AT_EPOCH": 151, "BSTAR": 0.00042219434, "MEAN_MOTION_DOT": 4.213e-05, "MEAN_MOTION_DDOT": 0}, "tle": {"line1": "1 66652U 25274C   25340.78073872  .00004213  00000+0  42219-3 0  9991", "line2": "2 66652  97.7391 268.0813 0010426 280.9539  79.0506 14.91857241  1516"}}, "geometry": {"type": "Point", "coordinates": [-130.57053013801917, 77.87180841636834]}}]}